METHANESAT              
1 59101U 24043D   25364.28919403  .00006446  00000+0  56550-3 0  9998
2 59101  97.8204 129.8857 0010168 209.4142 150.6508 14.96936320 99372
GOSAT-GW (IBUKI GW)     
1 64694U 25141A   25364.30504640  .00001743  00000+0  31563-3 0  9999
2 64694  98.0444 299.5013 0001452  85.0223 275.1147 14.67557444 27071
GHGSAT-C1               
1 46278U 20061G   25364.29182248  .00034423  00000+0  42832-3 0  9999
2 46278  97.2298  80.2243 0000787 347.7596  12.3642 15.59882813297059
GHGSAT-C12              
1 64529U 25135B   25364.28435171  .00006506  00000+0  31551-3 0  9997
2 64529  97.4609 115.9401 0006124  52.9761 307.2033 15.18832377 29179
GHGSAT-C13              
1 64548U 25135W   25364.23566724  .00005561  00000+0  26442-3 0  9995
2 64548  97.4634 116.2153 0001611  43.5683 316.5679 15.19595106 29188
GHGSAT-C2               
1 47509U 21006DA  25364.10370474  .00010343  00000+0  30311-3 0  9991
2 47509  97.2425  49.2730 0006864  65.0700 295.1257 15.35365495273888
GHGSAT-C3               
1 52737U 22057F   25364.32343285  .00011482  00000+0  37820-3 0  9998
2 52737  97.6341 139.2540 0006462  11.9323 348.2069 15.31630922199662
GHGSAT-C4               
1 52746U 22057Q   25364.34257833  .00011231  00000+0  37012-3 0  9998
2 52746  97.6268 138.2755 0006336 357.0664   3.0539 15.31620572199678
GHGSAT-C5               
1 52744U 22057N   25364.29461593  .00010384  00000+0  34255-3 0  9994
2 52744  97.6429 140.6012 0007351   7.0393 353.0950 15.31606397199660
GHGSAT-C6               
1 56204U 23054AC  25364.27507876  .00021291  00000+0  41647-3 0  9992
2 56204  97.3174 266.6985 0006060 308.3867  51.6838 15.47431046152283
GHGSAT-C7               
1 56209U 23054AH  25364.28005600  .00017112  00000+0  35558-3 0  9997
2 56209  97.3131 265.8789 0006462 299.6731  60.3874 15.45711139152269
GHGSAT-C8               
1 56186U 23054J   25364.24775147  .00020440  00000+0  39970-3 0  9997
2 56186  97.3140 266.0903 0004510 341.5855  18.5231 15.47456845152264
SENTINEL-5P             
1 42969U 17064A   25364.24735111  .00000156  00000+0  95113-4 0  9996
2 42969  98.7805 302.6780 0001062  91.3206 268.8092 14.19522573425594
ENMAP                   
1 52159U 22033C   25364.24625044  .00000519  00000+0  84652-4 0  9992
2 52159  97.9780  83.9084 0001236  84.8418 275.2932 14.74969078201751
PRISMA                  
1 44072U 19015A   25364.26661096  .00001024  00000+0  13043-3 0  9999
2 44072  97.8680  76.4721 0001201  86.4879 273.6473 14.83658104367008
SENTINEL-2A             
1 40697U 15028A   25364.26370161  .00000095  00000+0  52997-4 0  9997
2 40697  98.5724  76.5514 0001037  91.9208 268.2094 14.30812445549574
SENTINEL-2B             
1 42063U 17013A   25364.25645397  .00000176  00000+0  83928-4 0  9995
2 42063  98.5694  76.4550 0001165  92.0759 268.0557 14.30818253460480
SENTINEL-2C             
1 60989U 24157A   25364.22158606  .00000251  00000+0  11248-3 0  9997
2 60989  98.5661  76.4505 0001348  99.7995 260.3340 14.30820237 68822
LANDSAT 8               
1 39084U 13008A   25364.23574722  .00000695  00000+0  16424-3 0  9997
2 39084  98.2050  72.0491 0001052  95.6495 264.4824 14.57122036673297
LANDSAT 9               
1 49260U 21088A   25364.20154329  .00000741  00000+0  17455-3 0  9992
2 49260  98.2071  72.0574 0001043  93.7152 266.4165 14.57117915226393
